GLOBALSTAR M001         
1 25162U 98008A   25358.16051441 -.00000059  00000+0  28703-3 0  9993
2 25162  52.0012 140.2838 0000410 329.9575 201.6300 12.38224429267249
GLOBALSTAR M004         
1 25163U 98008B   25358.04718500 -.00000096  00000+0  44111-4 0  9990
2 25163  51.9974 194.9288 0003313  12.5736 154.4567 12.63411328285681
GLOBALSTAR M002         
1 25164U 98008C   25357.83538957 -.00000102  00000+0 -49738-3 0  9991
2 25164  51.9999 124.6898 0002484 124.0983 236.0073 11.61514506206105
GLOBALSTAR M003         
1 25165U 98008D   25358.03307896 -.00000211  00000+0 -12950-2 0  9997
2 25165  51.9922   2.7036 0007934 316.8085  77.5883 12.12040269256245
GLOBALSTAR M014         
1 25306U 98023A   25358.07956434 -.00000075  00000+0  38271-4 0  9996
2 25306  51.9859  43.3088 0000597   0.9687  14.0536 11.65483550213319
GLOBALSTAR M006         
1 25307U 98023B   25358.02680970 -.00000112  00000+0 -73993-3 0  9993
2 25307  51.9938 103.0105 0003955 100.0198  71.3819 11.58178232238825
GLOBALSTAR M015         
1 25308U 98023C   25357.90522073 -.00000068  00000+0  13620-3 0  9999
2 25308  51.9788 210.4835 0013710  56.0573  45.4202 11.48862962215887
GLOBALSTAR M008         
1 25309U 98023D   25357.47698378 -.00000062  00000+0  26884-3 0  9994
2 25309  51.9993   9.2503 0002603 210.1283 315.2389 12.36077455261251
